CCSDS_OMM_VERS = 2.0
CREATION_DATE  = 
ORIGINATOR     = 

OBJECT_NAME    = STARLINK-36461
OBJECT_ID      = 2026-002M
CENTER_NAME    = EARTH
REF_FRAME      = TEME
TIME_SYSTEM    = UTC
MEAN_ELEMENT_THEORY = SGP/SGP4

EPOCH          = 2026-01-14T14:00:01.999872
MEAN_MOTION    = 15.90269406
ECCENTRICITY   = .00017346
INCLINATION    = 42.9978
RA_OF_ASC_NODE = 278.3665
ARG_OF_PERICENTER = 269.7319
MEAN_ANOMALY   = 248.9226

EPHEMERIS_TYPE = 0
CLASSIFICATION_TYPE = U
NORAD_CAT_ID   = 67316
ELEMENT_SET_NO = 999
REV_AT_EPOCH   = 287
BSTAR          = -.47630263E-2
MEAN_MOTION_DOT = -.1324765E-1
MEAN_MOTION_DDOT = 0

CCSDS_OMM_VERS = 2.0
CREATION_DATE  = 
ORIGINATOR     = 

OBJECT_NAME    = STARLINK-36450
OBJECT_ID      = 2026-002N
CENTER_NAME    = EARTH
REF_FRAME      = TEME
TIME_SYSTEM    = UTC
MEAN_ELEMENT_THEORY = SGP/SGP4

EPOCH          = 2026-01-14T14:00:01.999872
MEAN_MOTION    = 15.90311936
ECCENTRICITY   = .00017103
INCLINATION    = 42.9980
RA_OF_ASC_NODE = 278.3609
ARG_OF_PERICENTER = 268.6456
MEAN_ANOMALY   = 252.2820

EPHEMERIS_TYPE = 0
CLASSIFICATION_TYPE = U
NORAD_CAT_ID   = 67317
ELEMENT_SET_NO = 999
REV_AT_EPOCH   = 287
BSTAR          = -.48670812E-2
MEAN_MOTION_DOT = -.1352776E-1
MEAN_MOTION_DDOT = 0

CCSDS_OMM_VERS = 2.0
CREATION_DATE  = 
ORIGINATOR     = 

OBJECT_NAME    = STARLINK-36498
OBJECT_ID      = 2026-002P
CENTER_NAME    = EARTH
REF_FRAME      = TEME
TIME_SYSTEM    = UTC
MEAN_ELEMENT_THEORY = SGP/SGP4

EPOCH          = 2026-01-14T14:00:01.999872
MEAN_MOTION    = 15.90381136
ECCENTRICITY   = .00016996
INCLINATION    = 42.9977
RA_OF_ASC_NODE = 278.3485
ARG_OF_PERICENTER = 268.0514
MEAN_ANOMALY   = 257.7241

EPHEMERIS_TYPE = 0
CLASSIFICATION_TYPE = U
NORAD_CAT_ID   = 67318
ELEMENT_SET_NO = 999
REV_AT_EPOCH   = 277
BSTAR          = -.50392845E-2
MEAN_MOTION_DOT = -.1398951E-1
MEAN_MOTION_DDOT = 0

CCSDS_OMM_VERS = 2.0
CREATION_DATE  = 
ORIGINATOR     = 

OBJECT_NAME    = STARLINK-36470
OBJECT_ID      = 2026-002Q
CENTER_NAME    = EARTH
REF_FRAME      = TEME
TIME_SYSTEM    = UTC
MEAN_ELEMENT_THEORY = SGP/SGP4

EPOCH          = 2026-01-14T14:00:01.999872
MEAN_MOTION    = 15.90350187
ECCENTRICITY   = .00016699
INCLINATION    = 42.9979
RA_OF_ASC_NODE = 278.3547
ARG_OF_PERICENTER = 267.9185
MEAN_ANOMALY   = 255.4351

EPHEMERIS_TYPE = 0
CLASSIFICATION_TYPE = U
NORAD_CAT_ID   = 67319
ELEMENT_SET_NO = 999
REV_AT_EPOCH   = 277
BSTAR          = -.49744634E-2
MEAN_MOTION_DOT = -.1381255E-1
MEAN_MOTION_DDOT = 0

CCSDS_OMM_VERS = 2.0
CREATION_DATE  = 
ORIGINATOR     = 

OBJECT_NAME    = STARLINK-36500
OBJECT_ID      = 2026-002R
CENTER_NAME    = EARTH
REF_FRAME      = TEME
TIME_SYSTEM    = UTC
MEAN_ELEMENT_THEORY = SGP/SGP4

EPOCH          = 2026-01-14T14:00:01.999872
MEAN_MOTION    = 15.90411950
ECCENTRICITY   = .00018134
INCLINATION    = 42.9980
RA_OF_ASC_NODE = 278.3430
ARG_OF_PERICENTER = 258.8530
MEAN_ANOMALY   = 269.2698

EPHEMERIS_TYPE = 0
CLASSIFICATION_TYPE = U
NORAD_CAT_ID   = 67320
ELEMENT_SET_NO = 999
REV_AT_EPOCH   = 277
BSTAR          = -.50820246E-2
MEAN_MOTION_DOT = -.1411356E-1
MEAN_MOTION_DDOT = 0

CCSDS_OMM_VERS = 2.0
CREATION_DATE  = 
ORIGINATOR     = 

OBJECT_NAME    = STARLINK-36462
OBJECT_ID      = 2026-002S
CENTER_NAME    = EARTH
REF_FRAME      = TEME
TIME_SYSTEM    = UTC
MEAN_ELEMENT_THEORY = SGP/SGP4

EPOCH          = 2026-01-14T14:00:01.999872
MEAN_MOTION    = 15.90446444
ECCENTRICITY   = .00017032
INCLINATION    = 42.9983
RA_OF_ASC_NODE = 278.3303
ARG_OF_PERICENTER = 267.4399
MEAN_ANOMALY   = 265.6828

EPHEMERIS_TYPE = 0
CLASSIFICATION_TYPE = U
NORAD_CAT_ID   = 67321
ELEMENT_SET_NO = 999
REV_AT_EPOCH   = 271
BSTAR          = -.51212851E-2
MEAN_MOTION_DOT = -.1422962E-1
MEAN_MOTION_DDOT = 0

CCSDS_OMM_VERS = 2.0
CREATION_DATE  = 
ORIGINATOR     = 

OBJECT_NAME    = STARLINK-36434
OBJECT_ID      = 2026-002T
CENTER_NAME    = EARTH
REF_FRAME      = TEME
TIME_SYSTEM    = UTC
MEAN_ELEMENT_THEORY = SGP/SGP4

EPOCH          = 2026-01-14T14:00:01.999872
MEAN_MOTION    = 15.90418561
ECCENTRICITY   = .00016654
INCLINATION    = 42.9982
RA_OF_ASC_NODE = 278.3347
ARG_OF_PERICENTER = 270.7496
MEAN_ANOMALY   = 260.5787

EPHEMERIS_TYPE = 0
CLASSIFICATION_TYPE = U
NORAD_CAT_ID   = 67322
ELEMENT_SET_NO = 999
REV_AT_EPOCH   = 271
BSTAR          = -.51324437E-2
MEAN_MOTION_DOT = -.1423831E-1
MEAN_MOTION_DDOT = 0

CCSDS_OMM_VERS = 2.0
CREATION_DATE  = 
ORIGINATOR     = 

OBJECT_NAME    = STARLINK-36497
OBJECT_ID      = 2026-002U
CENTER_NAME    = EARTH
REF_FRAME      = TEME
TIME_SYSTEM    = UTC
MEAN_ELEMENT_THEORY = SGP/SGP4

EPOCH          = 2026-01-14T14:00:01.999872
MEAN_MOTION    = 15.90469230
ECCENTRICITY   = .00017826
INCLINATION    = 42.9985
RA_OF_ASC_NODE = 278.3241
ARG_OF_PERICENTER = 267.4097
MEAN_ANOMALY   = 268.1692

EPHEMERIS_TYPE = 0
CLASSIFICATION_TYPE = U
NORAD_CAT_ID   = 67323
ELEMENT_SET_NO = 999
REV_AT_EPOCH   = 277
BSTAR          = -.51509613E-2
MEAN_MOTION_DOT = -.1431671E-1
MEAN_MOTION_DDOT = 0

CCSDS_OMM_VERS = 2.0
CREATION_DATE  = 
ORIGINATOR     = 

OBJECT_NAME    = STARLINK-36471
OBJECT_ID      = 2026-002V
CENTER_NAME    = EARTH
REF_FRAME      = TEME
TIME_SYSTEM    = UTC
MEAN_ELEMENT_THEORY = SGP/SGP4

EPOCH          = 2026-01-14T14:00:01.999872
MEAN_MOTION    = 15.90496437
ECCENTRICITY   = .00017736
INCLINATION    = 42.9987
RA_OF_ASC_NODE = 278.3094
ARG_OF_PERICENTER = 267.9529
MEAN_ANOMALY   = 273.5517

EPHEMERIS_TYPE = 0
CLASSIFICATION_TYPE = U
NORAD_CAT_ID   = 67324
ELEMENT_SET_NO = 999
REV_AT_EPOCH   = 271
BSTAR          = -.52210168E-2
MEAN_MOTION_DOT = -.1450323E-1
MEAN_MOTION_DDOT = 0

CCSDS_OMM_VERS = 2.0
CREATION_DATE  = 
ORIGINATOR     = 

OBJECT_NAME    = STARLINK-36473
OBJECT_ID      = 2026-002W
CENTER_NAME    = EARTH
REF_FRAME      = TEME
TIME_SYSTEM    = UTC
MEAN_ELEMENT_THEORY = SGP/SGP4

EPOCH          = 2026-01-14T14:00:01.999872
MEAN_MOTION    = 15.90480939
ECCENTRICITY   = .00016731
INCLINATION    = 42.9982
RA_OF_ASC_NODE = 278.3162
ARG_OF_PERICENTER = 268.5349
MEAN_ANOMALY   = 270.2642

EPHEMERIS_TYPE = 0
CLASSIFICATION_TYPE = U
NORAD_CAT_ID   = 67325
ELEMENT_SET_NO = 999
REV_AT_EPOCH   = 287
BSTAR          = -.51958054E-2
MEAN_MOTION_DOT = -.1443149E-1
MEAN_MOTION_DDOT = 0

CCSDS_OMM_VERS = 2.0
CREATION_DATE  = 
ORIGINATOR     = 

OBJECT_NAME    = STARLINK-36430
OBJECT_ID      = 2026-002X
CENTER_NAME    = EARTH
REF_FRAME      = TEME
TIME_SYSTEM    = UTC
MEAN_ELEMENT_THEORY = SGP/SGP4

EPOCH          = 2026-01-14T14:00:01.999872
MEAN_MOTION    = 15.90532962
ECCENTRICITY   = .00017553
INCLINATION    = 42.9983
RA_OF_ASC_NODE = 278.2954
ARG_OF_PERICENTER = 265.6289
MEAN_ANOMALY   = 281.3767

EPHEMERIS_TYPE = 0
CLASSIFICATION_TYPE = U
NORAD_CAT_ID   = 67326
ELEMENT_SET_NO = 999
REV_AT_EPOCH   = 287
BSTAR          = -.52695958E-2
MEAN_MOTION_DOT = -.1464389E-1
MEAN_MOTION_DDOT = 0

CCSDS_OMM_VERS = 2.0
CREATION_DATE  = 
ORIGINATOR     = 

OBJECT_NAME    = STARLINK-36501
OBJECT_ID      = 2026-002Y
CENTER_NAME    = EARTH
REF_FRAME      = TEME
TIME_SYSTEM    = UTC
MEAN_ELEMENT_THEORY = SGP/SGP4

EPOCH          = 2026-01-14T14:00:01.999872
MEAN_MOTION    = 15.90520374
ECCENTRICITY   = .00016699
INCLINATION    = 42.9986
RA_OF_ASC_NODE = 278.3027
ARG_OF_PERICENTER = 265.5429
MEAN_ANOMALY   = 278.6060

EPHEMERIS_TYPE = 0
CLASSIFICATION_TYPE = U
NORAD_CAT_ID   = 67327
ELEMENT_SET_NO = 999
REV_AT_EPOCH   = 271
BSTAR          = -.5260575E-2
MEAN_MOTION_DOT = -.1461313E-1
MEAN_MOTION_DDOT = 0

