STARLINK-36461          
1 67316U 26002M   26014.58335648 -.01324765  00000+0 -47630-2 0  9999
2 67316  42.9978 278.3665 0001734 269.7319 248.9226 15.90269406  2875
STARLINK-36450          
1 67317U 26002N   26014.58335648 -.01352776  00000+0 -48671-2 0  9999
2 67317  42.9980 278.3609 0001710 268.6456 252.2820 15.90311936  2875
STARLINK-36498          
1 67318U 26002P   26014.58335648 -.01398951  00000+0 -50393-2 0  9999
2 67318  42.9977 278.3485 0001699 268.0514 257.7241 15.90381136  2774
STARLINK-36470          
1 67319U 26002Q   26014.58335648 -.01381255  00000+0 -49745-2 0  9998
2 67319  42.9979 278.3547 0001669 267.9185 255.4351 15.90350187  2774
STARLINK-36500          
1 67320U 26002R   26014.58335648 -.01411356  00000+0 -50820-2 0  9992
2 67320  42.9980 278.3430 0001813 258.8530 269.2698 15.90411950  2776
STARLINK-36462          
1 67321U 26002S   26014.58335648 -.01422962  00000+0 -51213-2 0  9995
2 67321  42.9983 278.3303 0001703 267.4399 265.6828 15.90446444  2711
STARLINK-36434          
1 67322U 26002T   26014.58335648 -.01423831  00000+0 -51324-2 0  9995
2 67322  42.9982 278.3347 0001665 270.7496 260.5787 15.90418561  2718
STARLINK-36497          
1 67323U 26002U   26014.58335648 -.01431671  00000+0 -51510-2 0  9994
2 67323  42.9985 278.3241 0001782 267.4097 268.1692 15.90469230  2779
STARLINK-36471          
1 67324U 26002V   26014.58335648 -.01450323  00000+0 -52210-2 0  9998
2 67324  42.9987 278.3094 0001773 267.9529 273.5517 15.90496437  2712
STARLINK-36473          
1 67325U 26002W   26014.58335648 -.01443149  00000+0 -51958-2 0  9995
2 67325  42.9982 278.3162 0001673 268.5349 270.2642 15.90480939  2870
STARLINK-36430          
1 67326U 26002X   26014.58335648 -.01464389  00000+0 -52696-2 0  9995
2 67326  42.9983 278.2954 0001755 265.6289 281.3767 15.90532962  2877
STARLINK-36501          
1 67327U 26002Y   26014.58335648 -.01461313  00000+0 -52606-2 0  9991
2 67327  42.9986 278.3027 0001669 265.5429 278.6060 15.90520374  2714
